BSAT-3C (JCSAT-110R)    
1 37776U 11041B   26173.80585218 -.00000347  00000+0  00000+0 0  9996
2 37776   0.0142 356.8560 0000070 172.3393 141.8436  1.00272044 50526
PAKSAT-1R               
1 37779U 11042A   26173.82337547  .00000157  00000+0  00000+0 0  9990
2 37779   0.7045  84.5629 0003429 343.0162 177.7868  1.00269701 54539
SES-2                   
1 37809U 11049A   26173.58478749 -.00000193  00000+0  00000+0 0  9995
2 37809   0.0750  96.2787 0002840 353.0436 304.9582  1.00271506 54011
ARABSAT-5C              
1 37810U 11049B   26173.81990880  .00000127  00000+0  00000+0 0  9994
2 37810   0.0470 355.8571 0003623 117.6889 112.6356  1.00274151 54093
EUTELSAT 7 WEST A       
1 37816U 11051A   26173.74314786 -.00000057  00000+0  00000+0 0  9993
2 37816   0.0706  26.7072 0004419  73.6935  70.7337  1.00272474 53939
QUETZSAT 1              
1 37826U 11054A   26173.80057384 -.00000239  00000+0  00000+0 0  9994
2 37826   0.0396  65.3830 0002802  27.8200  28.9816  1.00271564 49937
INTELSAT 18 (IS-18)     
1 37834U 11056A   26173.77197448  .00000056  00000+0  00000+0 0  9993
2 37834   0.0270 278.9191 0001887 174.1678 275.7572  1.00271629 53866
EUTELSAT 16A            
1 37836U 11057A   26173.82336654  .00000107  00000+0  00000+0 0  9993
2 37836   0.0393 355.4048 0005647  96.3983 131.6012  1.00270641  7397
VIASAT-1                
1 37843U 11059A   26173.65054380 -.00000021  00000+0  00000+0 0  9993
2 37843   0.0193 338.4140 0002430 113.9281 297.5740  1.00270697 47374
ASIASAT 7               
1 37933U 11069A   26173.89235060 -.00000330  00000+0  00000+0 0  9999
2 37933   0.0437 273.3848 0001403 160.4564 263.9699  1.00269283 44913
BEIDOU-2 IGSO-5         
1 37948U 11073A   26169.66754444 -.00000192  00000+0  00000+0 0  9998
2 37948  47.6748 271.5267 0113971 221.7702 105.6518  1.00272695 53143
LUCH-5A                 
1 37951U 11074B   26173.62464274 -.00000052  00000+0  00000+0 0  9998
2 37951   8.7684  73.7290 0002538  28.1178 200.7535  1.00271508 53108
NIGCOMSAT 1R            
1 38014U 11077A   26173.82432882  .00000148  00000+0  00000+0 0  9999
2 38014   0.0518 108.6185 0002394 246.7588 254.8606  1.00273068 53016
WGS F4 (USA 233)        
1 38070U 12003A   26173.12046838  .00000000  00000+0  00000+0 0  9993
2 38070   0.0203  15.8625 0000834  95.8644 290.3737  1.00267708 44193
SES-4                   
1 38087U 12007A   26173.81140722 -.00000165  00000+0  00000+0 0  9991
2 38087   0.0234  25.8795 0002624  78.9222  76.2980  1.00270167 52280
BEIDOU-2 G5             
1 38091U 12008A   26173.89028417  .00000058  00000+0  00000+0 0  9991
2 38091   3.5890  69.6736 0008944 274.3935 306.1786  1.00273934 52426
MUOS-1                  
1 38093U 12009A   26173.65349047 -.00000128  00000+0  00000+0 0  9992
2 38093   5.4867  47.1481 0057981   2.1582 356.7769  1.00273266 52498
INTELSAT 22 (IS-22)     
1 38098U 12011A   26173.83020896 -.00000056  00000+0  00000+0 0  9998
2 38098   0.0241  62.0263 0001500  37.6858 182.2838  1.00272622  7246
YAHSAT 1B               
1 38245U 12016A   26173.82536882  .00000130  00000+0  00000+0 0  9995
2 38245   0.0898  89.5983 0002935  24.5253 141.6049  1.00270701 45665
AEHF-2 (USA 235)        
1 38254U 12019A   26173.45616900 -.00000137  00000+0  00000+0 0  9995
2 38254   6.6623  57.4494 0002190  29.3054 331.5329  1.00271381  7045
JCSAT-13                
1 38331U 12023A   26173.84047560 -.00000353  00000+0  00000+0 0  9999
2 38331   0.0166  18.4329 0002627  78.5101 240.6516  1.00271961 51590
VINASAT-2               
1 38332U 12023B   26173.84203561 -.00000326  00000+0  00000+0 0  9995
2 38332   0.0157  17.0458 0002378  80.1656 248.7833  1.00271523 46719
NIMIQ 6                 
1 38342U 12026A   26173.65531049 -.00000171  00000+0  00000+0 0  9991
2 38342   0.0113 349.3491 0002809  97.7214 328.5663  1.00272012 50462
ZHONGXING-2A            
1 38352U 12028A   26173.89469529 -.00000289  00000+0  00000+0 0  9993
2 38352   1.4705  83.8211 0003947  43.9411 203.6286  1.00270739 51358
INTELSAT 19 (IS-19)     
1 38356U 12030A   26173.77748009 -.00000053  00000+0  00000+0 0  9999
2 38356   0.0170 358.9921 0003197 100.2310 257.6225  1.00272914 50504
ECHOSTAR 17             
1 38551U 12035A   26173.50951014 -.00000073  00000+0  00000+0 0  9996
2 38551   0.0189  17.5656 0002232  74.0535 255.3893  1.00272711 51119
METEOSAT-10 (MSG-3)     
1 38552U 12035B   26173.81600878 -.00000006  00000+0  00000+0 0  9996
2 38552   4.6856  61.0002 0001644   4.0244 139.9662  1.00267513 50918
SES-5                   
1 38652U 12036A   26173.53161025  .00000036  00000+0  00000+0 0  9995
2 38652   0.0466 315.0978 0001946 134.3683  17.5956  1.00271557 44518
INTELSAT 20 (IS-20)     
1 38740U 12043A   26173.47299564 -.00000022  00000+0  00000+0 0  9990
2 38740   0.0056  44.4069 0001249 142.7135 322.3051  1.00267817 50802
HYLAS 2                 
1 38741U 12043B   26173.51635684 -.00000256  00000+0  00000+0 0  9992
2 38741   2.4419  81.0107 0002606  29.0405 273.9585  1.00271642 50823
INTELSAT 21 (IS-21)     
1 38749U 12045A   26173.51921686 -.00000283  00000+0  00000+0 0  9992
2 38749   0.0127  51.2621 0001602  52.9298 295.4278  1.00271706 50572
