OBJECT_NAME,OBJECT_ID,EPOCH,MEAN_MOTION,ECCENTRICITY,INCLINATION,RA_OF_ASC_NODE,ARG_OF_PERICENTER,MEAN_ANOMALY,EPHEMERIS_TYPE,CLASSIFICATION_TYPE,NORAD_CAT_ID,ELEMENT_SET_NO,REV_AT_EPOCH,BSTAR,MEAN_MOTION_DOT,MEAN_MOTION_DDOT
BSAT-3C (JCSAT-110R),2011-041B,2026-06-22T19:20:25.628352,1.00272044,.00000707,0.0142,356.8560,172.3393,141.8436,0,U,37776,999,5052,0,-.347E-5,0
PAKSAT-1R,2011-042A,2026-06-22T19:45:39.640608,1.00269701,.00034298,0.7045,84.5629,343.0162,177.7868,0,U,37779,999,5453,0,.157E-5,0
SES-2,2011-049A,2026-06-22T14:02:05.639136,1.00271506,.00028406,0.0750,96.2787,353.0436,304.9582,0,U,37809,999,5401,0,-.193E-5,0
ARABSAT-5C,2011-049B,2026-06-22T19:40:40.120320,1.00274151,.00036238,0.0470,355.8571,117.6889,112.6356,0,U,37810,999,5409,0,.127E-5,0
EUTELSAT 7 WEST A,2011-051A,2026-06-22T17:50:07.975104,1.00272474,.00044193,0.0706,26.7072,73.6935,70.7337,0,U,37816,999,5393,0,-.57E-6,0
QUETZSAT 1,2011-054A,2026-06-22T19:12:49.579776,1.00271564,.00028028,0.0396,65.3830,27.8200,28.9816,0,U,37826,999,4993,0,-.239E-5,0
INTELSAT 18 (IS-18),2011-056A,2026-06-22T18:31:38.595072,1.00271629,.00018876,0.0270,278.9191,174.1678,275.7572,0,U,37834,999,5386,0,.56E-6,0
EUTELSAT 16A,2011-057A,2026-06-22T19:45:38.869056,1.00270641,.00056479,0.0393,355.4048,96.3983,131.6012,0,U,37836,999,739,0,.107E-5,0
VIASAT-1,2011-059A,2026-06-22T15:36:46.984320,1.00270697,.00024303,0.0193,338.4140,113.9281,297.5740,0,U,37843,999,4737,0,-.21E-6,0
ASIASAT 7,2011-069A,2026-06-22T21:24:59.091840,1.00269283,.00014033,0.0437,273.3848,160.4564,263.9699,0,U,37933,999,4491,0,-.33E-5,0
BEIDOU-2 IGSO-5,2011-073A,2026-06-18T16:01:15.839616,1.00272695,.01139717,47.6748,271.5267,221.7702,105.6518,0,U,37948,999,5314,0,-.192E-5,0
LUCH-5A,2011-074B,2026-06-22T14:59:29.132736,1.00271508,.00025384,8.7684,73.7290,28.1178,200.7535,0,U,37951,999,5310,0,-.52E-6,0
NIGCOMSAT 1R,2011-077A,2026-06-22T19:47:02.010048,1.00273068,.00023941,0.0518,108.6185,246.7588,254.8606,0,U,38014,999,5301,0,.148E-5,0
WGS F4 (USA 233),2012-003A,2026-06-22T02:53:28.468032,1.00267708,.00008348,0.0203,15.8625,95.8644,290.3737,0,U,38070,999,4419,0,0,0
SES-4,2012-007A,2026-06-22T19:28:25.583808,1.00270167,.0002624,0.0234,25.8795,78.9222,76.2980,0,U,38087,999,5228,0,-.165E-5,0
BEIDOU-2 G5,2012-008A,2026-06-22T21:22:00.552288,1.00273934,.00089446,3.5890,69.6736,274.3935,306.1786,0,U,38091,999,5242,0,.58E-6,0
MUOS-1,2012-009A,2026-06-22T15:41:01.576608,1.00273266,.00579818,5.4867,47.1481,2.1582,356.7769,0,U,38093,999,5249,0,-.128E-5,0
INTELSAT 22 (IS-22),2012-011A,2026-06-22T19:55:30.054144,1.00272622,.00015009,0.0241,62.0263,37.6858,182.2838,0,U,38098,999,724,0,-.56E-6,0
YAHSAT 1B,2012-016A,2026-06-22T19:48:31.866048,1.00270701,.00029353,0.0898,89.5983,24.5253,141.6049,0,U,38245,999,4566,0,.13E-5,0
AEHF-2 (USA 235),2012-019A,2026-06-22T10:56:53.001600,1.00271381,.00021906,6.6623,57.4494,29.3054,331.5329,0,U,38254,999,704,0,-.137E-5,0
JCSAT-13,2012-023A,2026-06-22T20:10:17.091840,1.00271961,.00026278,0.0166,18.4329,78.5101,240.6516,0,U,38331,999,5159,0,-.353E-5,0
VINASAT-2,2012-023B,2026-06-22T20:12:31.876704,1.00271523,.00023782,0.0157,17.0458,80.1656,248.7833,0,U,38332,999,4671,0,-.326E-5,0
NIMIQ 6,2012-026A,2026-06-22T15:43:38.826336,1.00272012,.00028096,0.0113,349.3491,97.7214,328.5663,0,U,38342,999,5046,0,-.171E-5,0
ZHONGXING-2A,2012-028A,2026-06-22T21:28:21.673056,1.00270739,.0003947,1.4705,83.8211,43.9411,203.6286,0,U,38352,999,5135,0,-.289E-5,0
INTELSAT 19 (IS-19),2012-030A,2026-06-22T18:39:34.279776,1.00272914,.00031973,0.0170,358.9921,100.2310,257.6225,0,U,38356,999,5050,0,-.53E-6,0
ECHOSTAR 17,2012-035A,2026-06-22T12:13:41.676096,1.00272711,.00022321,0.0189,17.5656,74.0535,255.3893,0,U,38551,999,5111,0,-.73E-6,0
METEOSAT-10 (MSG-3),2012-035B,2026-06-22T19:35:03.158592,1.00267513,.00016446,4.6856,61.0002,4.0244,139.9662,0,U,38552,999,5091,0,-.6E-7,0
SES-5,2012-036A,2026-06-22T12:45:31.125600,1.00271557,.00019467,0.0466,315.0978,134.3683,17.5956,0,U,38652,999,4451,0,.36E-6,0
INTELSAT 20 (IS-20),2012-043A,2026-06-22T11:21:06.823296,1.00267817,.00012495,0.0056,44.4069,142.7135,322.3051,0,U,38740,999,5080,0,-.22E-6,0
HYLAS 2,2012-043B,2026-06-22T12:23:33.230976,1.00271642,.00026066,2.4419,81.0107,29.0405,273.9585,0,U,38741,999,5082,0,-.256E-5,0
INTELSAT 21 (IS-21),2012-045A,2026-06-22T12:27:40.336704,1.00271706,.00016023,0.0127,51.2621,52.9298,295.4278,0,U,38749,999,5057,0,-.283E-5,0
